SENTINEL-6              
1 46984U 20086A   23291.88395130 -.00000038  00000+0  98746-4 0  9990
2 46984  66.0441 354.5374 0007894 268.0694  91.9417 12.80930368135794
